#dV2023  2  6 22  0  0.00000000    1682       CTS   FIT  GFZ
## 2248 165600.00000000    30.00000000 59981 0.9166666666667
+    1   L64  0  0  0  0  0  0  0  0  0  0  0  0  0  0  0  0
+          0  0  0  0  0  0  0  0  0  0  0  0  0  0  0  0  0
+          0  0  0  0  0  0  0  0  0  0  0  0  0  0  0  0  0
+          0  0  0  0  0  0  0  0  0  0  0  0  0  0  0  0  0
+          0  0  0  0  0  0  0  0  0  0  0  0  0  0  0  0  0
++         0  0  0  0  0  0  0  0  0  0  0  0  0  0  0  0  0
++         0  0  0  0  0  0  0  0  0  0  0  0  0  0  0  0  0
++         0  0  0  0  0  0  0  0  0  0  0  0  0  0  0  0  0
++         0  0  0  0  0  0  0  0  0  0  0  0  0  0  0  0  0
++         0  0  0  0  0  0  0  0  0  0  0  0  0  0  0  0  0
%c L  cc GPS ccc cccc cccc cccc cccc ccccc ccccc ccccc ccccc
%c cc cc ccc ccc cccc cccc cccc cccc ccccc ccccc ccccc ccccc
%f  0.0000000  0.000000000  0.00000000000  0.000000000000000
%f  0.0000000  0.000000000  0.00000000000  0.000000000000000
%i    0    0    0    0      0      0      0      0         0
%i    0    0    0    0      0      0      0      0         0
/* CCCCCCCCCCCCCCCCCCCCCCCCCCCCCCCCCCCCCCCCCCCCCCCCCCCCCCCCCCCCCCCCCCCCCCCCCCCCC
/* C                             GFZ RSO-ORBIT                                 C
/* C DOI: https://doi.org/10.5880/GFZ_ORBIT/RSO/L64_G_v02                      C
/* C                                                                           C
/* C DORIS        RMS: not applicable                                          C
/* C GNSS-E Code  RMS: not applicable                                          C
/* C GNSS-E Phase RMS: not applicable                                          C
/* C GNSS-G Code  RMS:  51.116 [cm]   Obs.acc.:     13920 Obs.eli.:       924  C
/* C GNSS-G Phase RMS:   4.594 [mm]   Obs.acc.:     13920 Obs.eli.:       924  C
/* C SLR          RMS:   1.460 [cm]   Obs.acc.:        53 Obs.eli.:         0  C
/* C                                                                           C
/* CCCCCCCCCCCCCCCCCCCCCCCCCCCCCCCCCCCCCCCCCCCCCCCCCCCCCCCCCCCCCCCCCCCCCCCCCCCCC
*  2023  2  7  4 48  0.00000000
PL64    119.568890     81.640516  -6877.499957   4647.743112
VL64 -70262.494452  28702.234881   -989.156547 999999.999999
*  2023  2  7  4 48 30.00000000
PL64    -91.056479    168.147921  -6876.688332   4648.203173
VL64 -70141.459503  28964.037549   1530.131711 999999.999999
*  2023  2  7  4 49  0.00000000
PL64   -301.202276    255.392451  -6868.321180   4648.663377
VL64 -69942.836327  29193.550993   4047.406627 999999.999999
*  2023  2  7  4 49 30.00000000
PL64   -510.636283    343.276354  -6852.408628   4649.123351
VL64 -69667.002312  29390.192618   6559.945214 999999.999999
*  2023  2  7  4 50  0.00000000
PL64   -719.127538    431.700188  -6828.968963   4649.583183
VL64 -69314.418623  29553.416341   9065.030349 999999.999999
*  2023  2  7  4 50 30.00000000
PL64   -926.446587    520.562925  -6798.028608   4650.042937
VL64 -68885.629775  29682.713488  11559.954251 999999.999999
*  2023  2  7  4 51  0.00000000
PL64  -1132.365734    609.762070  -6759.622093   4650.502617
VL64 -68381.261704  29777.613710  14042.022616 999999.999999
*  2023  2  7  4 51 30.00000000
PL64  -1336.659280    699.193777  -6713.792007   4650.962550
VL64 -67802.019016  29837.685440  16508.556653 999999.999999
*  2023  2  7  4 52  0.00000000
PL64  -1539.103754    788.752961  -6660.588951   4651.422479
VL64 -67148.684288  29862.536394  18956.893746 999999.999999
*  2023  2  7  4 52 30.00000000
PL64  -1739.478152    878.333421  -6600.071486   4651.881937
VL64 -66422.118290  29851.814002  21384.389668 999999.999999
*  2023  2  7  4 53  0.00000000
PL64  -1937.564168    967.827958  -6532.306078   4652.341312
VL64 -65623.259108  29805.206136  23788.421221 999999.999999
*  2023  2  7  4 53 30.00000000
PL64  -2133.146425   1057.128500  -6457.367024   4652.800981
VL64 -64753.121393  29722.442204  26166.388501 999999.999999
*  2023  2  7  4 54  0.00000000
PL64  -2326.012706   1146.126226  -6375.336386   4653.260705
VL64 -63812.795598  29603.293940  28515.717707 999999.999999
*  2023  2  7  4 54 30.00000000
PL64  -2515.954173   1234.711693  -6286.303902   4653.720404
VL64 -62803.446295  29447.576320  30833.863678 999999.999999
*  2023  2  7  4 55  0.00000000
PL64  -2702.765595   1322.774972  -6190.366903   4654.180145
VL64 -61726.310649  29255.148683  33118.311904 999999.999999
*  2023  2  7  4 55 30.00000000
PL64  -2886.245557   1410.205778  -6087.630212   4654.639950
VL64 -60582.697335  29025.915282  35366.580523 999999.999999
*  2023  2  7  4 56  0.00000000
PL64  -3066.196679   1496.893606  -5978.206048   4655.099737
VL64 -59373.986235  28759.825545  37576.222386 999999.999999
*  2023  2  7  4 56 30.00000000
PL64  -3242.425825   1582.727868  -5862.213915   4655.559527
VL64 -58101.628365  28456.874336  39744.828350 999999.999999
*  2023  2  7  4 57  0.00000000
PL64  -3414.744320   1667.598029  -5739.780482   4656.019307
VL64 -56767.144106  28117.102025  41870.031174 999999.999999
*  2023  2  7  4 57 30.00000000
PL64  -3582.968148   1751.393744  -5611.039455   4656.479146
VL64 -55372.120475  27740.594997  43949.508084 999999.999999
*  2023  2  7  4 58  0.00000000
PL64  -3746.918153   1834.004996  -5476.131437   4656.938872
VL64 -53918.209167  27327.486723  45980.982717 999999.999999
*  2023  2  7  4 58 30.00000000
PL64  -3906.420229   1915.322243  -5335.203790   4657.398650
VL64 -52407.125165  26877.958494  47962.227696 999999.999999
*  2023  2  7  4 59  0.00000000
PL64  -4061.305506   1995.236555  -5188.410478   4657.858276
VL64 -50840.645079  26392.239371  49891.067568 999999.999999
*  2023  2  7  4 59 30.00000000
PL64  -4211.410537   2073.639763  -5035.911913   4658.318032
VL64 -49220.605025  25870.605723  51765.381379 999999.999999
*  2023  2  7  5  0  0.00000000
PL64  -4356.577468   2150.424597  -4877.874782   4658.777762
VL64 -47548.898355  25313.381067  53583.104657 999999.999999
*  2023  2  7  5  0 30.00000000
PL64  -4496.654207   2225.484827  -4714.471883   4659.237463
VL64 -45827.473592  24720.936254  55342.231237 999999.999999
*  2023  2  7  5  1  0.00000000
PL64  -4631.494591   2298.715410  -4545.881940   4659.697192
VL64 -44058.332559  24093.689432  57040.815325 999999.999999
*  2023  2  7  5  1 30.00000000
PL64  -4760.958538   2370.012626  -4372.289419   4660.156849
VL64 -42243.528468  23432.105993  58676.973674 999999.999999
*  2023  2  7  5  2  0.00000000
PL64  -4884.912200   2439.274221  -4193.884344   4660.617899
VL64 -40385.163868  22736.698640  60248.887796 999999.999999
*  2023  2  7  5  2 30.00000000
PL64  -5003.228109   2506.399552  -4010.862091   4661.078958
VL64 -38485.388533  22008.027111  61754.806198 999999.999999
*  2023  2  7  5  3  0.00000000
PL64  -5115.785314   2571.289724  -3823.423187   4661.539595
VL64 -36546.397329  21246.697650  63193.046621 999999.999999
*  2023  2  7  5  3 30.00000000
PL64  -5222.469514   2633.847731  -3631.773102   4661.999752
VL64 -34570.428050  20453.362619  64561.998012 999999.999999
*  2023  2  7  5  4  0.00000000
PL64  -5323.173182   2693.978591  -3436.122029   4662.459799
VL64 -32559.759440  19628.720532  65860.122492 999999.999999
*  2023  2  7  5  4 30.00000000
PL64  -5417.795687   2751.589490  -3236.684659   4662.919701
VL64 -30516.708634  18773.516145  67085.958014 999999.999999
*  2023  2  7  5  5  0.00000000
PL64  -5506.243402   2806.589915  -3033.679956   4663.379660
VL64 -28443.627701  17888.539769  68238.120635 999999.999999
*  2023  2  7  5  5 30.00000000
PL64  -5588.429806   2858.891790  -2827.330915   4663.839466
VL64 -26342.900698  16974.625945  69315.305969 999999.999999
*  2023  2  7  5  6  0.00000000
PL64  -5664.275573   2908.409609  -2617.864324   4664.299296
VL64 -24216.941207  16032.652383  70316.290596 999999.999999
*  2023  2  7  5  6 30.00000000
PL64  -5733.708661   2955.060564  -2405.510516   4664.759055
VL64 -22068.189929  15063.539642  71239.933720 999999.999999
*  2023  2  7  5  7  0.00000000
PL64  -5796.664385   2998.764669  -2190.503122   4665.218941
VL64 -19899.112022  14068.250532  72085.179311 999999.999999
*  2023  2  7  5  7 30.00000000
PL64  -5853.085492   3039.444893  -1973.078810   4665.678835
VL64 -17712.193862  13047.789064  72851.057779 999999.999999
*  2023  2  7  5  8  0.00000000
PL64  -5902.922212   3077.027274  -1753.477027   4666.138672
VL64 -15509.940001  12003.199434  73536.687631 999999.999999
*  2023  2  7  5  8 30.00000000
PL64  -5946.132314   3111.441043  -1531.939728   4666.598588
VL64 -13294.868843  10935.564465  74141.277059 999999.999999
*  2023  2  7  5  9  0.00000000
PL64  -5982.681136   3142.618734  -1308.711111   4667.058396
VL64 -11069.508767   9846.004251  74664.122307 999999.999999
*  2023  2  7  5  9 30.00000000
PL64  -6012.541617   3170.496300  -1084.037358   4667.518218
VL64  -8836.399627   8735.676573  75104.606831 999999.999999
*  2023  2  7  5 10  0.00000000
PL64  -6035.694335   3195.013221   -858.166356   4667.978113
VL64  -6598.092010   7605.776563  75462.208564 999999.999999
*  2023  2  7  5 10 30.00000000
PL64  -6052.127522   3216.112614   -631.347416   4668.437488
VL64  -4357.136690   6457.531949  75736.503209 999999.999999
*  2023  2  7  5 11  0.00000000
PL64  -6061.837056   3233.741324   -403.830982   4668.896189
VL64  -2116.081415   5292.199965  75927.156515 999999.999999
*  2023  2  7  5 11 30.00000000
PL64  -6064.826460   3247.850014   -175.868364   4669.355190
VL64    122.524601   4111.069680  76033.926410 999999.999999
*  2023  2  7  5 12  0.00000000
PL64  -6061.106901   3258.393262     52.288548   4669.814089
VL64   2356.138378   2915.460856  76056.670531 999999.999999
*  2023  2  7  5 12 30.00000000
PL64  -6050.697150   3265.329647    280.387584   4670.273392
VL64   4582.231929   1706.720288  75995.342141 999999.999999
*  2023  2  7  5 13  0.00000000
PL64  -6033.623543   3268.621824    508.176570   4670.732882
VL64   6798.291966    486.220807  75849.986177 999999.999999
EOF
